JILIN-1 GAOFEN 3A       
1 44312U 19032C   26068.74542089  .00016264  00000+0  55381-3 0  9993
2 44312  44.9746 183.2861 0002618 111.2900 248.8263 15.30271310372592
STARLINK-35632          
1 66129U 25237R   26068.19873895  .00026667  00000+0  90965-3 0  9993
2 66129  53.1611  42.0282 0001065 112.3321 247.7793 15.30186129 22533
