[{"OBJECT_NAME":"JILIN-1 GAOFEN 3A","OBJECT_ID":"2019-032C","EPOCH":"2026-03-09T17:53:24.364896","MEAN_MOTION":15.3027131,"ECCENTRICITY":0.00026181,"INCLINATION":44.9746,"RA_OF_ASC_NODE":183.2861,"ARG_OF_PERICENTER":111.29,"MEAN_ANOMALY":248.8263,"EPHEMERIS_TYPE":0,"CLASSIFICATION_TYPE":"U","NORAD_CAT_ID":44312,"ELEMENT_SET_NO":999,"REV_AT_EPOCH":37259,"BSTAR":0.00055381133,"MEAN_MOTION_DOT":0.00016264,"MEAN_MOTION_DDOT":0},{"OBJECT_NAME":"STARLINK-35632","OBJECT_ID":"2025-237R","EPOCH":"2026-03-09T04:46:11.045280","MEAN_MOTION":15.30186129,"ECCENTRICITY":0.00010653,"INCLINATION":53.1611,"RA_OF_ASC_NODE":42.0282,"ARG_OF_PERICENTER":112.3321,"MEAN_ANOMALY":247.7793,"EPHEMERIS_TYPE":0,"CLASSIFICATION_TYPE":"U","NORAD_CAT_ID":66129,"ELEMENT_SET_NO":999,"REV_AT_EPOCH":2253,"BSTAR":0.00090964705,"MEAN_MOTION_DOT":0.00026667,"MEAN_MOTION_DDOT":0}]
